CCSDS_OMM_VERS = 2.0
CREATION_DATE  = 
ORIGINATOR     = 

OBJECT_NAME    = IDEFIX & ARIANE 42P R/B
OBJECT_ID      = 2002-021B
CENTER_NAME    = EARTH
REF_FRAME      = TEME
TIME_SYSTEM    = UTC
MEAN_ELEMENT_THEORY = SGP/SGP4

EPOCH          = 2026-01-30T09:20:20.479488
MEAN_MOTION    = 14.30996597
ECCENTRICITY   = .0010934
INCLINATION    = 98.5834
RA_OF_ASC_NODE = 329.4627
ARG_OF_PERICENTER = 304.1942
MEAN_ANOMALY   = 55.8204

EPHEMERIS_TYPE = 0
CLASSIFICATION_TYPE = U
NORAD_CAT_ID   = 27422
ELEMENT_SET_NO = 999
REV_AT_EPOCH   = 23854
BSTAR          = .1855E-3
MEAN_MOTION_DOT = .444E-5
MEAN_MOTION_DDOT = 0

CCSDS_OMM_VERS = 2.0
CREATION_DATE  = 
ORIGINATOR     = 

OBJECT_NAME    = AQUA
OBJECT_ID      = 2002-022A
CENTER_NAME    = EARTH
REF_FRAME      = TEME
TIME_SYSTEM    = UTC
MEAN_ELEMENT_THEORY = SGP/SGP4

EPOCH          = 2026-01-30T12:04:10.849440
MEAN_MOTION    = 14.61876947
ECCENTRICITY   = .000178
INCLINATION    = 98.4106
RA_OF_ASC_NODE = 357.1932
ARG_OF_PERICENTER = 60.8833
MEAN_ANOMALY   = 51.2416

EPHEMERIS_TYPE = 0
CLASSIFICATION_TYPE = U
NORAD_CAT_ID   = 27424
ELEMENT_SET_NO = 999
REV_AT_EPOCH   = 26315
BSTAR          = .33112E-3
MEAN_MOTION_DOT = .1607E-4
MEAN_MOTION_DDOT = 0

CCSDS_OMM_VERS = 2.0
CREATION_DATE  = 
ORIGINATOR     = 

OBJECT_NAME    = CZ-4B R/B
OBJECT_ID      = 2002-024C
CENTER_NAME    = EARTH
REF_FRAME      = TEME
TIME_SYSTEM    = UTC
MEAN_ELEMENT_THEORY = SGP/SGP4

EPOCH          = 2026-01-30T08:55:06.875040
MEAN_MOTION    = 14.14540224
ECCENTRICITY   = .0050933
INCLINATION    = 98.8922
RA_OF_ASC_NODE = 83.9561
ARG_OF_PERICENTER = 131.2193
MEAN_ANOMALY   = 240.2040

EPHEMERIS_TYPE = 0
CLASSIFICATION_TYPE = U
NORAD_CAT_ID   = 27432
ELEMENT_SET_NO = 999
REV_AT_EPOCH   = 22382
BSTAR          = .58111E-4
MEAN_MOTION_DOT = .69E-6
MEAN_MOTION_DDOT = 0

CCSDS_OMM_VERS = 2.0
CREATION_DATE  = 
ORIGINATOR     = 

OBJECT_NAME    = MIDORI II (ADEOS-II)
OBJECT_ID      = 2002-056A
CENTER_NAME    = EARTH
REF_FRAME      = TEME
TIME_SYSTEM    = UTC
MEAN_ELEMENT_THEORY = SGP/SGP4

EPOCH          = 2026-01-30T12:15:24.315840
MEAN_MOTION    = 14.29253885
ECCENTRICITY   = .0002056
INCLINATION    = 98.7704
RA_OF_ASC_NODE = 348.7416
ARG_OF_PERICENTER = 96.6528
MEAN_ANOMALY   = 263.4887

EPHEMERIS_TYPE = 0
CLASSIFICATION_TYPE = U
NORAD_CAT_ID   = 27597
ELEMENT_SET_NO = 999
REV_AT_EPOCH   = 20484
BSTAR          = .20664E-3
MEAN_MOTION_DOT = .48E-5
MEAN_MOTION_DDOT = 0

CCSDS_OMM_VERS = 2.0
CREATION_DATE  = 
ORIGINATOR     = 

OBJECT_NAME    = H-2A R/B
OBJECT_ID      = 2002-056E
CENTER_NAME    = EARTH
REF_FRAME      = TEME
TIME_SYSTEM    = UTC
MEAN_ELEMENT_THEORY = SGP/SGP4

EPOCH          = 2026-01-30T13:03:28.321920
MEAN_MOTION    = 14.33731118
ECCENTRICITY   = .0069068
INCLINATION    = 98.3133
RA_OF_ASC_NODE = 352.3783
ARG_OF_PERICENTER = 275.4835
MEAN_ANOMALY   = 200.1658

EPHEMERIS_TYPE = 0
CLASSIFICATION_TYPE = U
NORAD_CAT_ID   = 27601
ELEMENT_SET_NO = 999
REV_AT_EPOCH   = 20864
BSTAR          = .18968E-3
MEAN_MOTION_DOT = .498E-5
MEAN_MOTION_DDOT = 0

CCSDS_OMM_VERS = 2.0
CREATION_DATE  = 
ORIGINATOR     = 

OBJECT_NAME    = CZ-4B R/B
OBJECT_ID      = 2003-049C
CENTER_NAME    = EARTH
REF_FRAME      = TEME
TIME_SYSTEM    = UTC
MEAN_ELEMENT_THEORY = SGP/SGP4

EPOCH          = 2026-01-30T11:48:33.871680
MEAN_MOTION    = 14.54974500
ECCENTRICITY   = .0048028
INCLINATION    = 98.6834
RA_OF_ASC_NODE = 23.9117
ARG_OF_PERICENTER = 349.6883
MEAN_ANOMALY   = 10.3323

EPHEMERIS_TYPE = 0
CLASSIFICATION_TYPE = U
NORAD_CAT_ID   = 28059
ELEMENT_SET_NO = 999
REV_AT_EPOCH   = 18104
BSTAR          = .17818E-3
MEAN_MOTION_DOT = .727E-5
MEAN_MOTION_DDOT = 0

CCSDS_OMM_VERS = 2.0
CREATION_DATE  = 
ORIGINATOR     = 

OBJECT_NAME    = CZ-2C R/B
OBJECT_ID      = 2004-012C
CENTER_NAME    = EARTH
REF_FRAME      = TEME
TIME_SYSTEM    = UTC
MEAN_ELEMENT_THEORY = SGP/SGP4

EPOCH          = 2026-01-30T11:57:29.397024
MEAN_MOTION    = 15.60206497
ECCENTRICITY   = .0016705
INCLINATION    = 97.7333
RA_OF_ASC_NODE = 92.2887
ARG_OF_PERICENTER = 91.7400
MEAN_ANOMALY   = 268.5769

EPHEMERIS_TYPE = 0
CLASSIFICATION_TYPE = U
NORAD_CAT_ID   = 28222
ELEMENT_SET_NO = 999
REV_AT_EPOCH   = 19831
BSTAR          = .76087E-3
MEAN_MOTION_DOT = .62607E-3
MEAN_MOTION_DDOT = 0

CCSDS_OMM_VERS = 2.0
CREATION_DATE  = 
ORIGINATOR     = 

OBJECT_NAME    = SL-16 R/B
OBJECT_ID      = 2004-021B
CENTER_NAME    = EARTH
REF_FRAME      = TEME
TIME_SYSTEM    = UTC
MEAN_ELEMENT_THEORY = SGP/SGP4

EPOCH          = 2026-01-30T04:50:04.466112
MEAN_MOTION    = 14.14590253
ECCENTRICITY   = .0002646
INCLINATION    = 71.0018
RA_OF_ASC_NODE = 313.2656
ARG_OF_PERICENTER = 106.7371
MEAN_ANOMALY   = 253.4042

EPHEMERIS_TYPE = 0
CLASSIFICATION_TYPE = U
NORAD_CAT_ID   = 28353
ELEMENT_SET_NO = 999
REV_AT_EPOCH   = 11739
BSTAR          = -.79208E-4
MEAN_MOTION_DOT = -.2E-5
MEAN_MOTION_DDOT = 0

CCSDS_OMM_VERS = 2.0
CREATION_DATE  = 
ORIGINATOR     = 

OBJECT_NAME    = CZ-4B R/B
OBJECT_ID      = 2004-035C
CENTER_NAME    = EARTH
REF_FRAME      = TEME
TIME_SYSTEM    = UTC
MEAN_ELEMENT_THEORY = SGP/SGP4

EPOCH          = 2026-01-30T00:39:43.102944
MEAN_MOTION    = 15.28334237
ECCENTRICITY   = .00343302
INCLINATION    = 97.3562
RA_OF_ASC_NODE = 64.7446
ARG_OF_PERICENTER = 105.2308
MEAN_ANOMALY   = 255.2732

EPHEMERIS_TYPE = 0
CLASSIFICATION_TYPE = U
NORAD_CAT_ID   = 28415
ELEMENT_SET_NO = 999
REV_AT_EPOCH   = 17400
BSTAR          = .4250067E-3
MEAN_MOTION_DOT = .11866E-3
MEAN_MOTION_DDOT = 0

CCSDS_OMM_VERS = 2.0
CREATION_DATE  = 
ORIGINATOR     = 

OBJECT_NAME    = CZ-2C R/B
OBJECT_ID      = 2004-046B
CENTER_NAME    = EARTH
REF_FRAME      = TEME
TIME_SYSTEM    = UTC
MEAN_ELEMENT_THEORY = SGP/SGP4

EPOCH          = 2026-01-30T11:32:44.989728
MEAN_MOTION    = 14.26977199
ECCENTRICITY   = .0138211
INCLINATION    = 98.1999
RA_OF_ASC_NODE = 307.8369
ARG_OF_PERICENTER = 267.9125
MEAN_ANOMALY   = 90.6225

EPHEMERIS_TYPE = 0
CLASSIFICATION_TYPE = U
NORAD_CAT_ID   = 28480
ELEMENT_SET_NO = 999
REV_AT_EPOCH   = 10305
BSTAR          = .1149E-3
MEAN_MOTION_DOT = .267E-5
MEAN_MOTION_DDOT = 0

CCSDS_OMM_VERS = 2.0
CREATION_DATE  = 
ORIGINATOR     = 

OBJECT_NAME    = ARIANE 5 R/B
OBJECT_ID      = 2004-049H
CENTER_NAME    = EARTH
REF_FRAME      = TEME
TIME_SYSTEM    = UTC
MEAN_ELEMENT_THEORY = SGP/SGP4

EPOCH          = 2026-01-30T10:24:30.908448
MEAN_MOTION    = 14.85179904
ECCENTRICITY   = .0085407
INCLINATION    = 98.2560
RA_OF_ASC_NODE = 197.4760
ARG_OF_PERICENTER = 114.7652
MEAN_ANOMALY   = 246.2478

EPHEMERIS_TYPE = 0
CLASSIFICATION_TYPE = U
NORAD_CAT_ID   = 28499
ELEMENT_SET_NO = 999
REV_AT_EPOCH   = 14011
BSTAR          = .17104E-3
MEAN_MOTION_DOT = .15E-4
MEAN_MOTION_DDOT = 0

CCSDS_OMM_VERS = 2.0
CREATION_DATE  = 
ORIGINATOR     = 

OBJECT_NAME    = CZ-2D R/B
OBJECT_ID      = 2005-024B
CENTER_NAME    = EARTH
REF_FRAME      = TEME
TIME_SYSTEM    = UTC
MEAN_ELEMENT_THEORY = SGP/SGP4

EPOCH          = 2026-01-30T12:06:13.435488
MEAN_MOTION    = 15.56828028
ECCENTRICITY   = .0006531
INCLINATION    = 97.3615
RA_OF_ASC_NODE = 44.3494
ARG_OF_PERICENTER = 139.7526
MEAN_ANOMALY   = 220.4213

EPHEMERIS_TYPE = 0
CLASSIFICATION_TYPE = U
NORAD_CAT_ID   = 28738
ELEMENT_SET_NO = 999
REV_AT_EPOCH   = 13383
BSTAR          = .65771E-3
MEAN_MOTION_DOT = .47302E-3
MEAN_MOTION_DDOT = 0

