IDEFIX & ARIANE 42P R/B 
1 27422U 02021B   26030.38912592  .00000444  00000+0  18550-3 0  9995
2 27422  98.5834 329.4627 0010934 304.1942  55.8204 14.30996597238548
AQUA                    
1 27424U 02022A   26030.50290335  .00001607  00000+0  33112-3 0  9999
2 27424  98.4106 357.1932 0001780  60.8833  51.2416 14.61876947263152
CZ-4B R/B               
1 27432U 02024C   26030.37160735  .00000069  00000+0  58111-4 0  9993
2 27432  98.8922  83.9561 0050933 131.2193 240.2040 14.14540224223826
MIDORI II (ADEOS-II)    
1 27597U 02056A   26030.51069810  .00000480  00000+0  20664-3 0  9996
2 27597  98.7704 348.7416 0002056  96.6528 263.4887 14.29253885204842
H-2A R/B                
1 27601U 02056E   26030.54407780  .00000498  00000+0  18968-3 0  9990
2 27601  98.3133 352.3783 0069068 275.4835 200.1658 14.33731118208643
CZ-4B R/B               
1 28059U 03049C   26030.49205870  .00000727  00000+0  17818-3 0  9999
2 28059  98.6834  23.9117 0048028 349.6883  10.3323 14.54974500181045
CZ-2C R/B               
1 28222U 04012C   26030.49825691  .00062607  00000+0  76087-3 0  9999
2 28222  97.7333  92.2887 0016705  91.7400 268.5769 15.60206497198311
SL-16 R/B               
1 28353U 04021B   26030.20144058 -.00000200  00000+0 -79208-4 0  9996
2 28353  71.0018 313.2656 0002646 106.7371 253.4042 14.14590253117394
CZ-4B R/B               
1 28415U 04035C   26030.02758221  .00011866  00000+0  42501-3 0  9996
2 28415  97.3562  64.7446 0034330 105.2308 255.2732 15.28334237174003
CZ-2C R/B               
1 28480U 04046B   26030.48107627  .00000267  00000+0  11490-3 0  9994
2 28480  98.1999 307.8369 0138211 267.9125  90.6225 14.26977199103051
ARIANE 5 R/B            
1 28499U 04049H   26030.43369107  .00001500  00000+0  17104-3 0  9994
2 28499  98.2560 197.4760 0085407 114.7652 246.2478 14.85179904140116
CZ-2D R/B               
1 28738U 05024B   26030.50432217  .00047302  00000+0  65771-3 0  9998
2 28738  97.3615  44.3494 0006531 139.7526 220.4213 15.56828028133834
